[{"OBJECT_NAME":"STARLINK-6286","OBJECT_ID":"2023-065BH","EPOCH":"2026-03-09T09:49:46.619904","MEAN_MOTION":15.02545533,"ECCENTRICITY":9.67e-5,"INCLINATION":43.0027,"RA_OF_ASC_NODE":224.7755,"ARG_OF_PERICENTER":268.8071,"MEAN_ANOMALY":91.2661,"EPHEMERIS_TYPE":0,"CLASSIFICATION_TYPE":"U","NORAD_CAT_ID":56558,"ELEMENT_SET_NO":999,"REV_AT_EPOCH":15643,"BSTAR":2.8804799e-5,"MEAN_MOTION_DOT":1.86e-6,"MEAN_MOTION_DDOT":0},{"OBJECT_NAME":"PEGASUS DEB","OBJECT_ID":"1994-029ACN","EPOCH":"2026-03-09T14:54:52.276896","MEAN_MOTION":14.88956192,"ECCENTRICITY":0.0150975,"INCLINATION":81.572,"RA_OF_ASC_NODE":286.6806,"ARG_OF_PERICENTER":308.5515,"MEAN_ANOMALY":50.2248,"EPHEMERIS_TYPE":0,"CLASSIFICATION_TYPE":"U","NORAD_CAT_ID":24980,"ELEMENT_SET_NO":999,"REV_AT_EPOCH":53329,"BSTAR":0.0016647,"MEAN_MOTION_DOT":0.00019427,"MEAN_MOTION_DDOT":0}]
